M2 PATHFINDER           
1 45727U 20037E   26197.97105611  .00000653  00000+0  50756-4 0  9992
2 45727  97.8141  29.5398 0012753  57.0170 303.2280 15.04794277329975
NETSAT-4                
1 46504U 20068U   26197.99476764  .00009994  00000+0  21547-3 0  9994
2 46504  97.8604 208.6526 0004962 186.9216 173.1964 15.44794793320377
NETSAT-3                
1 46505U 20068V   26198.28278643  .00009971  00000+0  22344-3 0  9995
2 46505  97.8654 207.1440 0004100 202.0764 158.0306 15.43652101320326
NETSAT-1                
1 46506U 20068W   26198.25284007  .00006413  00000+0  18986-3 0  9999
2 46506  97.8756 201.0809 0002573 250.4124 109.6841 15.35273405319917
NETSAT-2                
1 46507U 20068X   26198.24954354  .00013460  00000+0  26646-3 0  9990
2 46507  97.8614 208.9392 0002455 199.5022 160.6133 15.47220266320387
GREENCUBE (IO-117)      
1 53109U 22080E   26198.22212606 -.00000003  00000+0  00000+0 0  9999
2 53109  70.1407 287.8015 0009071 282.9900  76.9746  6.42583336 93996
SITRO-AIS 5 (KATYS)     
1 57176U 23091L   26198.28952066  .00006118  00000+0  21249-3 0  9991
2 57176  97.5041 262.4865 0010433   5.0255 355.1088 15.30091577168941
SITRO-AIS 6 (CHIRKIN)   
1 57192U 23091AC  26198.20791059  .00005045  00000+0  19610-3 0  9991
2 57192  97.5049 261.3614 0010951   9.6165 350.5281 15.26458807168865
SITRO-AIS 8 (ANOKHIN)   
1 57193U 23091AD  26198.25272928  .00007774  00000+0  24695-3 0  9996
2 57193  97.5036 264.1633 0009283   0.5817 359.5434 15.32890823169050
SITRO-AIS 7 (FARTUSHNIY)
1 57194U 23091AE  26198.28290132  .00004843  00000+0  19023-3 0  9990
2 57194  97.5045 261.2457 0010925  10.6073 349.5393 15.26132863168861
SITRO-AIS 10 (BURDAEV)  
1 57199U 23091AK  26198.28476552  .00011103  00000+0  28328-3 0  9992
2 57199  97.5064 269.5682 0004684 332.1040  27.9954 15.39675797169390
SITRO-AIS 9 (SHCHUKIN)  
1 57201U 23091AM  26198.25598805  .00010616  00000+0  27556-3 0  9999
2 57201  97.5061 269.2445 0004965 332.7250  27.3734 15.39159203169373
SITRO-AIS 12 (SMIRENNIY)
1 57204U 23091AQ  26198.30587782  .00010203  00000+0  26240-3 0  9991
2 57204  97.5075 269.7818 0004513 324.4414  35.6530 15.39455535169406
SITRO-AIS 11 (SHEFFER)  
1 57208U 23091AU  26198.31078860  .00010971  00000+0  27789-3 0  9999
2 57208  97.5073 270.0528 0004446 323.9799  36.1147 15.39900974169420
SITRO-AIS 25            
1 59066U 24039R   26198.32360883  .00001731  00000+0  13676-3 0  9990
2 59066  95.3891 255.8014 0142947 221.9953 137.0245 14.93650191129223
SITRO-AIS 26            
1 59067U 24039S   26198.32913678  .00001472  00000+0  11731-3 0  9999
2 59067  95.3891 255.6966 0143276 222.5934 136.4110 14.93441328129213
SITRO-AIS 27            
1 59068U 24039T   26198.29088251  .00001488  00000+0  11747-3 0  9990
2 59068  95.3896 255.9561 0142371 221.2369 137.8035 14.93864786129236
SITRO-AIS 28            
1 59071U 24039U   26198.26765072  .00001457  00000+0  11496-3 0  9991
2 59071  95.3895 255.9891 0142245 221.1680 137.8749 14.93899817129235
GRBBETA                 
1 60237U 24128C   26198.15030373  .00001679  00000+0  12511-3 0  9998
2 60237  61.9898 111.1258 0036777 141.0827 219.2924 15.06815785110785
OOV-CUBE (TUBSAT-30)    
1 60240U 24128F   26198.06347753  .00000952  00000+0  85234-4 0  9991
2 60240  61.9940 121.3870 0040878 140.4347 219.9741 15.02878305110605
ROBUSTA-3A (MEDITERRAN*)
1 60243U 24128J   26198.16246593  .00003574  00000+0  21675-3 0  9996
2 60243  61.9863 102.2147 0037890 134.0592 226.3635 15.12002416110953
LASARSAT                
1 62391U 24247Q   26197.09385022  .00020669  00000+0  39100-3 0  9992
2 62391  44.9739  99.5612 0007476 171.6523 188.4493 15.48082110 87798
CROCUBE                 
1 62394U 24247T   26198.08492527  .00025129  00000+0  43824-3 0  9998
2 62394  44.9718  90.7884 0007819 184.7174 175.3645 15.50291791 87985
FORESAIL-1 PRIME        
1 66778U 25276DS  26198.17054758  .00002254  00000+0  11112-3 0  9990
2 66778  97.4189 270.8955 0002737  40.2765 319.8672 15.18947700 34952
KNACKSAT-2              
1 67683U 98067XZ  26198.24140568  .00034112  00000+0  37883-3 0  9998
2 67683  51.6276 143.0009 0007951 335.1166  24.9444 15.62548905 24977
