OBJECT_NAME,OBJECT_ID,EPOCH,MEAN_MOTION,ECCENTRICITY,INCLINATION,RA_OF_ASC_NODE,ARG_OF_PERICENTER,MEAN_ANOMALY,EPHEMERIS_TYPE,CLASSIFICATION_TYPE,NORAD_CAT_ID,ELEMENT_SET_NO,REV_AT_EPOCH,BSTAR,MEAN_MOTION_DOT,MEAN_MOTION_DDOT
M2 PATHFINDER,2020-037E,2026-07-16T23:18:19.247904,15.04794277,.00127537,97.8141,29.5398,57.0170,303.2280,0,U,45727,999,32997,.50756198E-4,.653E-5,0
NETSAT-4,2020-068U,2026-07-16T23:52:27.924096,15.44794793,.00049627,97.8604,208.6526,186.9216,173.1964,0,U,46504,999,32037,.21546837E-3,.9994E-4,0
NETSAT-3,2020-068V,2026-07-17T06:47:12.747552,15.43652101,.00041005,97.8654,207.1440,202.0764,158.0306,0,U,46505,999,32032,.22344006E-3,.9971E-4,0
NETSAT-1,2020-068W,2026-07-17T06:04:05.382048,15.35273405,.00025735,97.8756,201.0809,250.4124,109.6841,0,U,46506,999,31991,.18985508E-3,.6413E-4,0
NETSAT-2,2020-068X,2026-07-17T05:59:20.561856,15.47220266,.00024551,97.8614,208.9392,199.5022,160.6133,0,U,46507,999,32038,.26646001E-3,.1346E-3,0
GREENCUBE (IO-117),2022-080E,2026-07-17T05:19:51.691584,6.42583336,.00090719,70.1407,287.8015,282.9900,76.9746,0,U,53109,999,9399,0,-.3E-7,0
SITRO-AIS 5 (KATYS),2023-091L,2026-07-17T06:56:54.585024,15.30091577,.00104336,97.5041,262.4865,5.0255,355.1088,0,U,57176,999,16894,.21248921E-3,.6118E-4,0
SITRO-AIS 6 (CHIRKIN),2023-091AC,2026-07-17T04:59:23.474976,15.26458807,.00109518,97.5049,261.3614,9.6165,350.5281,0,U,57192,999,16886,.19610244E-3,.5045E-4,0
SITRO-AIS 8 (ANOKHIN),2023-091AD,2026-07-17T06:03:55.809792,15.32890823,.00092832,97.5036,264.1633,0.5817,359.5434,0,U,57193,999,16905,.24695349E-3,.7774E-4,0
SITRO-AIS 7 (FARTUSHNIY),2023-091AE,2026-07-17T06:47:22.674048,15.26132863,.00109256,97.5045,261.2457,10.6073,349.5393,0,U,57194,999,16886,.19023242E-3,.4843E-4,0
SITRO-AIS 10 (BURDAEV),2023-091AK,2026-07-17T06:50:03.740928,15.39675797,.00046841,97.5064,269.5682,332.1040,27.9954,0,U,57199,999,16939,.28328483E-3,.11103E-3,0
SITRO-AIS 9 (SHCHUKIN),2023-091AM,2026-07-17T06:08:37.367520,15.39159203,.00049657,97.5061,269.2445,332.7250,27.3734,0,U,57201,999,16937,.27555899E-3,.10616E-3,0
SITRO-AIS 12 (SMIRENNIY),2023-091AQ,2026-07-17T07:20:27.843648,15.39455535,.00045138,97.5075,269.7818,324.4414,35.6530,0,U,57204,999,16940,.26240056E-3,.10203E-3,0
SITRO-AIS 11 (SHEFFER),2023-091AU,2026-07-17T07:27:32.135040,15.39900974,.00044467,97.5073,270.0528,323.9799,36.1147,0,U,57208,999,16942,.27788665E-3,.10971E-3,0
SITRO-AIS 25,2024-039R,2026-07-17T07:45:59.802912,14.93650191,.01429477,95.3891,255.8014,221.9953,137.0245,0,U,59066,999,12922,.13676339E-3,.1731E-4,0
SITRO-AIS 26,2024-039S,2026-07-17T07:53:57.417792,14.93441328,.01432769,95.3891,255.6966,222.5934,136.4110,0,U,59067,999,12921,.11731455E-3,.1472E-4,0
SITRO-AIS 27,2024-039T,2026-07-17T06:58:52.248864,14.93864786,.0142371,95.3896,255.9561,221.2369,137.8035,0,U,59068,999,12923,.11746824E-3,.1488E-4,0
SITRO-AIS 28,2024-039U,2026-07-17T06:25:25.022208,14.93899817,.01422454,95.3895,255.9891,221.1680,137.8749,0,U,59071,999,12923,.11496027E-3,.1457E-4,0
GRBBETA,2024-128C,2026-07-17T03:36:26.242272,15.06815785,.00367771,61.9898,111.1258,141.0827,219.2924,0,U,60237,999,11078,.12511212E-3,.1679E-4,0
OOV-CUBE (TUBSAT-30),2024-128F,2026-07-17T01:31:24.458592,15.02878305,.00408781,61.9940,121.3870,140.4347,219.9741,0,U,60240,999,11060,.85234402E-4,.952E-5,0
ROBUSTA-3A (MEDITERRANEE),2024-128J,2026-07-17T03:53:57.056352,15.12002416,.003789,61.9863,102.2147,134.0592,226.3635,0,U,60243,999,11095,.21674701E-3,.3574E-4,0
LASARSAT,2024-247Q,2026-07-16T02:15:08.659008,15.48082110,.00074765,44.9739,99.5612,171.6523,188.4493,0,U,62391,999,8779,.39100475E-3,.20669E-3,0
CROCUBE,2024-247T,2026-07-17T02:02:17.543328,15.50291791,.0007819,44.9718,90.7884,184.7174,175.3645,0,U,62394,999,8798,.4382351E-3,.25129E-3,0
FORESAIL-1 PRIME,2025-276DS,2026-07-17T04:05:35.310912,15.18947700,.00027374,97.4189,270.8955,40.2765,319.8672,0,U,66778,999,3495,.11111914E-3,.2254E-4,0
KNACKSAT-2,1998-067XZ,2026-07-17T05:47:37.450752,15.62548905,.00079517,51.6276,143.0009,335.1166,24.9444,0,U,67683,999,2497,.37882976E-3,.34112E-3,0
